CCSDS_OMM_VERS,COMMENT,CREATION_DATE,ORIGINATOR,OBJECT_NAME,OBJECT_ID,CENTER_NAME,REF_FRAME,TIME_SYSTEM,MEAN_ELEMENT_THEORY,EPOCH,MEAN_MOTION,ECCENTRICITY,INCLINATION,RA_OF_ASC_NODE,ARG_OF_PERICENTER,MEAN_ANOMALY,EPHEMERIS_TYPE,CLASSIFICATION_TYPE,NORAD_CAT_ID,ELEMENT_SET_NO,REV_AT_EPOCH,BSTAR,MEAN_MOTION_DOT,MEAN_MOTION_DDOT,SEMIMAJOR_AXIS,PERIOD,APOAPSIS,PERIAPSIS,OBJECT_TYPE,RCS_SIZE,COUNTRY_CODE,LAUNCH_DATE,SITE,DECAY_DATE,FILE,GP_ID,TLE_LINE0,TLE_LINE1,TLE_LINE2
"3.0","GENERATED VIA SPACE-TRACK.ORG API","2025-03-19T02:27:03","18 SPCS","CZ-6A DEB","2022-151RX","EARTH","TEME","UTC","SGP4","2025-03-18T18:55:31.470816","15.70193578","0.00302900","99.1017","187.1068","284.5654","75.2244","0","U","54934","999","5282","0.03685300000000","0.05383990","0.0000000000000","6736.480","91.708","378.750","337.940","DEBRIS","SMALL","PRC","2022-11-11","TSC","2025-03-25","4673449","283461270","0 CZ-6A DEB","1 54934U 22151RX  25077.78855869  .05383990  00000-0  36853-1 0  9996","2 54934  99.1017 187.1068 0030290 284.5654  75.2244 15.70193578 52820"
"3.0","GENERATED VIA SPACE-TRACK.ORG API","2025-03-19T07:06:35","18 SPCS","CZ-6A DEB","2024-140QJ","EARTH","TEME","UTC","SGP4","2025-03-18T21:51:35.652384","15.90391627","0.00184170","89.2833","332.3044","230.5413","129.4242","0","U","61140","999","3111","0.03372300000000","0.07107690","0.1087000000000","6679.323","90.544","313.489","288.887","DEBRIS","SMALL","PRC","2024-08-06","TSC","2025-03-25","4673727","283475857","0 CZ-6A DEB","1 61140U 24140QJ  25077.91082931  .07107690  10870+0  33723-1 0  9991","2 61140  89.2833 332.3044 0018417 230.5413 129.4242 15.90391627 31118"
"3.0","GENERATED VIA SPACE-TRACK.ORG API","2025-03-19T00:56:17","18 SPCS","STARLINK-1850","2020-088S","EARTH","TEME","UTC","SGP4","2025-03-18T23:08:59.840736","16.43141014","0.00041380","53.0230","47.1231","234.4438","232.2592","0","U","47138","999","23924","0.00082420000000","0.17668899","0.0000124090000","6535.597","87.637","160.167","154.758","PAYLOAD","LARGE","US","2020-11-25","AFETR","2025-03-19","4673442","283438754","0 STARLINK-1850","1 47138U 20088S   25077.96458149  .17668899  12409-4  82420-3 0  9991","2 47138  53.0230  47.1231 0004138 234.4438 232.2592 16.43141014239240"
"3.0","GENERATED VIA SPACE-TRACK.ORG API","2025-03-19T17:43:14","18 SPCS","NOAA 16 DEB","2000-055TU","EARTH","TEME","UTC","SGP4","2025-03-19T01:19:52.556160","15.68477613","0.00092620","98.9227","295.2739","313.1887","46.8595","0","U","42424","999","46535","0.05502900000000","0.07665119","0.0000000000000","6741.393","91.809","369.502","357.014","DEBRIS","SMALL","US","2000-09-21","AFWTR","2025-03-25","4674121","283499821","0 NOAA 16 DEB","1 42424U 00055TU  25078.05546940  .07665119  00000-0  55029-1 0  9998","2 42424  98.9227 295.2739 0009262 313.1887  46.8595 15.68477613465350"
"3.0","GENERATED VIA SPACE-TRACK.ORG API","2025-03-19T09:46:16","18 SPCS","STARLINK-3815","2022-045H","EARTH","TEME","UTC","SGP4","2025-03-19T04:35:39.103584","16.29240604","0.00108150","53.1874","288.9729","246.5343","219.5043","0","U","52338","999","16304","0.00191220000000","0.08475675","0.0000119950000","6572.718","88.385","201.692","187.475","PAYLOAD","LARGE","US","2022-04-29","AFETR","2025-03-19","4673790","283476363","0 STARLINK-3815","1 52338U 22045H   25078.19142481  .08475675  11995-4  19122-2 0  9994","2 52338  53.1874 288.9729 0010815 246.5343 219.5043 16.29240604163040"
"3.0","GENERATED VIA SPACE-TRACK.ORG API","2025-03-19T13:36:17","18 SPCS","SL-4 R/B","2024-250B","EARTH","TEME","UTC","SGP4","2025-03-19T12:28:19.323840","16.47995929","0.00106850","97.2410","13.3378","105.0848","14.8076","0","U","62431","999","1330","0.00024275000000","0.15853101","0.0000025048000","6522.755","87.379","151.590","137.651","ROCKET BODY","LARGE","CIS","2024-12-25","TTMTR","2025-03-19","4673794","283476367","0 SL-4 R/B","1 62431U 24250B   25078.51966810  .15853101  25048-5  24275-3 0  9998","2 62431  97.2410  13.3378 0010685 105.0848  14.8076 16.47995929 13306"
"3.0","GENERATED VIA SPACE-TRACK.ORG API","2025-03-19T17:43:14","18 SPCS","DMSP 5D-2 F13 DEB","1995-015CJ","EARTH","TEME","UTC","SGP4","2025-03-19T12:44:18.251520","15.46696102","0.00185690","98.5342","193.4504","263.2824","96.6309","0","U","40495","999","52739","0.03622300000000","0.02037170","0.0000000000000","6804.536","93.102","439.036","413.766","DEBRIS","SMALL","US","1995-03-24","AFWTR","2025-03-29","4674121","283499191","0 DMSP 5D-2 F13 DEB","1 40495U 95015CJ  25078.53076680  .02037170  00000-0  36223-1 0  9996","2 40495  98.5342 193.4504 0018569 263.2824  96.6309 15.46696102527396"
"3.0","GENERATED VIA SPACE-TRACK.ORG API","2025-03-20T06:36:34","18 SPCS","PEGASUS DEB","1994-029AEH","EARTH","TEME","UTC","SGP4","2025-03-19T22:14:45.052512","16.05962723","0.00027440","81.8310","50.5985","141.9311","218.2162","0","U","26740","999","42712","0.00391630000000","0.02534316","0.0067562000000","6636.079","89.666","259.765","256.123","DEBRIS","SMALL","US","1994-05-19","AFWTR","2025-03-25","4674559","283552104","0 PEGASUS DEB","1 26740U 94029AEH 25078.92691033  .02534316  67562-2  39163-2 0  9994","2 26740  81.8310  50.5985 0002744 141.9311 218.2162 16.05962723427120"
"3.0","GENERATED VIA SPACE-TRACK.ORG API","2025-03-19T22:36:20","18 SPCS","STARLINK-1941","2020-074BG","EARTH","TEME","UTC","SGP4","2025-03-19T22:28:00.456960","16.47124266","0.00047730","53.0188","63.6869","172.6783","287.0840","0","U","46793","999","24358","0.00044975000000","0.23551134","0.0000124810000","6525.056","87.425","150.036","143.807","PAYLOAD","LARGE","US","2020-10-24","AFETR","2025-03-19","4674279","283517183","0 STARLINK-1941","1 46793U 20074BG  25078.93611640  .23551134  12481-4  44975-3 0  9990","2 46793  53.0188  63.6869 0004773 172.6783 287.0840 16.47124266243589"
"3.0","GENERATED VIA SPACE-TRACK.ORG API","2025-03-19T22:56:18","18 SPCS","STARLINK-1749","2020-070BK","EARTH","TEME","UTC","SGP4","2025-03-19T22:39:58.963680","16.45663399","0.00074870","53.0189","245.7734","259.3028","239.2483","0","U","46589","999","24720","0.00047800000000","0.19770125","0.0000124970000","6528.917","87.503","155.671","145.894","PAYLOAD","LARGE","US","2020-10-06","AFETR","2025-03-20","4674387","283519981","0 STARLINK-1749","1 46589U 20070BK  25078.94443245  .19770125  12497-4  47800-3 0  9999","2 46589  53.0189 245.7734 0007487 259.3028 239.2483 16.45663399247205"
"3.0","GENERATED VIA SPACE-TRACK.ORG API","2025-03-21T22:23:56","18 SPCS","FENGYUN 1C DEB","1999-025DD","EARTH","TEME","UTC","SGP4","2025-03-21T03:30:09.324864","15.90664336","0.00044280","98.9589","306.7506","232.9623","127.1241","0","U","29811","999","94262","0.04666200000000","0.09813902","0.2103600000000","6678.560","90.528","303.382","297.467","DEBRIS","SMALL","PRC","1999-05-10","TSC","2025-03-25","4676295","283662496","0 FENGYUN 1C DEB","1 29811U 99025DD  25080.14594126  .09813902  21036+0  46662-1 0  9991","2 29811  98.9589 306.7506 0004428 232.9623 127.1241 15.90664336942627"
"3.0","GENERATED VIA SPACE-TRACK.ORG API","2025-03-21T06:46:35","18 SPCS","STARLINK-1390","2020-025V","EARTH","TEME","UTC","SGP4","2025-03-21T04:57:40.690944","16.43430149","0.00077790","53.0231","201.7313","338.1459","90.1412","0","U","45550","999","27178","0.00019771000000","0.05069048","0.0000125460000","6534.831","87.622","161.779","151.612","PAYLOAD","LARGE","US","2020-04-22","AFETR","2025-03-21","4675616","283637741","0 STARLINK-1390","1 45550U 20025V   25080.20672096  .05069048  12546-4  19771-3 0  9997","2 45550  53.0231 201.7313 0007779 338.1459  90.1412 16.43430149271782"
"3.0","GENERATED VIA SPACE-TRACK.ORG API","2025-03-21T22:23:56","18 SPCS","MSG 3 DEB (BAFFLE COVER)","2012-035F","EARTH","TEME","UTC","SGP4","2025-03-21T06:51:43.900128","1.02741301","0.00954230","8.5285","62.2472","218.0063","141.3864","0","U","40872","999","4311","0.00000000000000","-0.00000028","0.0000000000000","41486.341","1401.579","35504.081","34712.331","DEBRIS","","EUME","2012-07-05","FRGUI","","4676295","283668465","0 MSG 3 DEB (BAFFLE COVER)","1 40872U 12035F   25080.28592477 -.00000028  00000-0  00000-0 0  9992","2 40872   8.5285  62.2472 0095423 218.0063 141.3864  1.02741301 43112"
"3.0","GENERATED VIA SPACE-TRACK.ORG API","2025-03-22T03:56:54","18 SPCS","COSMOS 1408 DEB","1982-092BUU","EARTH","TEME","UTC","SGP4","2025-03-21T19:08:44.501856","15.76395812","0.00435520","82.4950","21.1284","193.9459","166.0608","0","U","52066","999","16898","0.00267530000000","0.00469714","0.0000000000000","6718.799","91.348","369.926","311.402","DEBRIS","SMALL","CIS","1982-09-16","PKMTR","2025-04-10","4676626","283711949","0 COSMOS 1408 DEB","1 52066U 82092BUU 25080.79773729  .00469714  00000-0  26753-2 0  9992","2 52066  82.4950  21.1284 0043552 193.9459 166.0608 15.76395812168982"
"3.0","GENERATED VIA SPACE-TRACK.ORG API","2025-03-22T19:15:20","18 SPCS","OBJECT Y","2021-022Y","EARTH","TEME","UTC","SGP4","2025-03-21T21:53:20.074560","16.44870059","0.00090900","97.3968","355.6048","202.7483","157.3418","0","U","47954","999","22139","0.00042405000000","0.15245865","0.0000027065000","6531.016","87.545","158.818","146.945","UNKNOWN","SMALL","SPN","2021-03-22","TTMTR","2025-04-15","4677401","283758222","0 OBJECT Y","1 47954U 21022Y   25080.91203790  .15245865  27065-5  42405-3 0  9991","2 47954  97.3968 355.6048 0009090 202.7483 157.3418 16.44870059221398"
"3.0","GENERATED VIA SPACE-TRACK.ORG API","2025-03-22T01:26:16","18 SPCS","STARLINK-1463","2020-038AT","EARTH","TEME","UTC","SGP4","2025-03-22T00:42:50.820768","16.49182084","0.00080840","53.0190","282.8071","285.3179","203.0158","0","U","45771","999","26550","0.00039471000000","0.31958170","0.0000126540000","6519.627","87.316","146.763","136.222","PAYLOAD","LARGE","US","2020-06-13","AFETR","2025-03-22","4676620","283690956","0 STARLINK-1463","1 45771U 20038AT  25081.02975487  .31958170  12654-4  39471-3 0  9998","2 45771  53.0190 282.8071 0008084 285.3179 203.0158 16.49182084265507"
